      2.10          N: GNSS NAV DATA                        RINEX VERSION / TYPE
fic2rin                                 02/13/2021 00:17:19 PGM / RUN BY / DATE
                                                            END OF HEADER
 3 21  2 12  8  0  0.0-8.087791502476e-05-1.011812855722e-11 0.000000000000e+00
    1.000000000000e+02-1.328125000000e+02 4.436970531918e-09-2.750655226620e+00
   -6.789341568947e-06 3.259373945184e-03 6.496906280518e-06 5.153660312653e+03
    4.608000000000e+05 6.519258022308e-08-5.217088268553e-01-6.332993507385e-08
    9.684819923624e-01 2.555625000000e+02 8.543407087312e-01-8.142839181937e-09
   -3.818016178556e-10 1.000000000000e+00 2.144000000000e+03 0.000000000000e+00
    2.400000000000e+00 0.000000000000e+00 1.862645149231e-09 1.000000000000e+02
    4.536000000000e+05 4.000000000000e+00
 8 21  2 12  8  0  0.0-1.001311466098e-05-1.364242052659e-12 0.000000000000e+00
    4.000000000000e+01 1.092187500000e+02 4.008381250883e-09 6.126753815089e-01
    5.694106221199e-06 6.187538616359e-03 1.089274883270e-05 5.153560010910e+03
    4.608000000000e+05 1.359730958939e-07-2.633934995428e+00 5.401670932770e-08
    9.684538077827e-01 1.724062500000e+02-3.156900997027e-02-7.822468694363e-09
    1.278624688422e-10 1.000000000000e+00 2.144000000000e+03 0.000000000000e+00
    2.400000000000e+00 0.000000000000e+00 5.122274160385e-09 4.000000000000e+01
    4.536000000000e+05 4.000000000000e+00
 7 21  2 12  8  0  0.0 5.586864426732e-05 1.352873368887e-11 0.000000000000e+00
    4.000000000000e+01 1.978125000000e+01 5.037709840836e-09-2.230886233526e+00
    8.791685104370e-07 1.441714831162e-02 4.732981324196e-06 5.153593381882e+03
    4.608000000000e+05 8.009374141693e-08 1.581005240631e+00-1.545995473862e-07
    9.515562642521e-01 2.824062500000e+02-2.353079487023e+00-8.093908572352e-09
    3.560862609935e-10 1.000000000000e+00 2.144000000000e+03 0.000000000000e+00
    3.400000000000e+00 0.000000000000e+00-1.117587089539e-08 4.000000000000e+01
    4.536000000000e+05 4.000000000000e+00
 4 21  2 12  8  0  0.0-1.796553842723e-04-2.614797267597e-12 0.000000000000e+00
    1.470000000000e+02-1.715625000000e+01 4.298036173316e-09 1.055676722887e-01
   -1.063570380211e-06 1.116924337111e-03 1.230277121067e-05 5.153595687866e+03
    4.608000000000e+05-2.793967723846e-08 5.579459440481e-01 4.842877388000e-08
    9.606572487847e-01 1.388750000000e+02-3.013529795326e+00-7.833183426389e-09
    3.439428980308e-10 1.000000000000e+00 2.144000000000e+03 0.000000000000e+00
    2.400000000000e+00 0.000000000000e+00-4.190951585770e-09 6.590000000000e+02
    4.536000000000e+05 4.000000000000e+00
 9 21  2 12  8  0  0.0-3.221239894629e-04-3.637978807092e-12 0.000000000000e+00
    4.000000000000e+01-2.515625000000e+01 4.388039922333e-09 1.025296469908e+00
   -1.430511474609e-06 1.953556318767e-03 1.239031553268e-05 5.153574588776e+03
    4.608000000000e+05-9.313225746155e-09 5.079661568636e-01-1.490116119385e-08
    9.535129479044e-01 1.351250000000e+02 1.815961227629e+00-7.860327414187e-09
    3.382283742837e-10 1.000000000000e+00 2.144000000000e+03 0.000000000000e+00
    2.400000000000e+00 0.000000000000e+00 1.396983861923e-09 4.000000000000e+01
    4.536000000000e+05 4.000000000000e+00
30 21  2 12  8  0  0.0-3.835069946945e-04-5.798028723802e-12 0.000000000000e+00
    1.800000000000e+01 2.137500000000e+01 5.450584181566e-09-2.283438291513e+00
    1.000240445137e-06 4.840705893002e-03 4.794448614120e-06 5.153737346649e+03
    4.608000000000e+05-2.793967723846e-08 1.599746960636e+00-4.842877388000e-08
    9.367903723021e-01 2.748750000000e+02-2.848393371589e+00-8.461781038574e-09
    2.682254583813e-10 1.000000000000e+00 2.144000000000e+03 0.000000000000e+00
    2.400000000000e+00 0.000000000000e+00 3.725290298462e-09 1.800000000000e+01
    4.536000000000e+05 4.000000000000e+00
15 21  2 12  8  0  0.0-1.699607819319e-04 2.614797267597e-12 0.000000000000e+00
    4.300000000000e+01-2.815625000000e+01 5.078425822534e-09-3.999193650811e-01
   -1.393258571625e-06 1.303314848337e-02 1.151859760284e-05 5.153571435928e+03
    4.608000000000e+05-2.793967723846e-08 4.116912986294e-01 1.639127731323e-07
    9.291907586505e-01 1.405312500000e+02 9.663175904349e-01-8.422493687812e-09
    2.125088518467e-10 1.000000000000e+00 2.144000000000e+03 0.000000000000e+00
    2.400000000000e+00 0.000000000000e+00-1.071020960808e-08 4.300000000000e+01
    4.536000000000e+05 4.000000000000e+00
12 21  2 12  8  0  0.0 8.381903171539e-09-5.229594535194e-12 0.000000000000e+00
    3.600000000000e+01-3.996875000000e+01 4.094813422558e-09-2.897301648815e+00
   -2.030283212662e-06 8.325111935847e-03 9.510666131973e-06 5.153554262161e+03
    4.608000000000e+05 2.793967723846e-08 2.690736856768e+00-4.842877388000e-08
    9.749968010560e-01 2.023750000000e+02 1.178016831415e+00-7.628532044694e-09
   -5.350222858257e-10 1.000000000000e+00 2.144000000000e+03 0.000000000000e+00
    2.400000000000e+00 0.000000000000e+00-1.257285475731e-08 3.600000000000e+01
    4.536000000000e+05 4.000000000000e+00
32 21  2 12  8  0  0.0 1.844577491283e-05 1.364242052659e-12 0.000000000000e+00
    1.000000000000e+01-9.187500000000e+00 4.393040130612e-09 1.327988507366e+00
   -4.209578037262e-07 4.571474040858e-03 1.218356192112e-05 5.153643390656e+03
    4.608000000000e+05-8.009374141693e-08 5.175419329217e-01 4.284083843231e-08
    9.575238947708e-01 1.453750000000e+02-2.439566219325e+00-7.914972547519e-09
    2.817974522807e-10 1.000000000000e+00 2.144000000000e+03 0.000000000000e+00
    2.400000000000e+00 0.000000000000e+00 4.656612873077e-10 1.000000000000e+01
    4.536000000000e+05 4.000000000000e+00
19 21  2 12  8  0  0.0-3.955932334065e-05 5.002220859751e-12 0.000000000000e+00
    2.200000000000e+01 1.176250000000e+02 3.749441893590e-09 3.064368555342e+00
    5.913898348808e-06 9.023396414705e-03 1.100078225136e-05 5.153627565384e+03
    4.608000000000e+05 1.545995473862e-07-2.512281759122e+00 5.215406417847e-08
    9.814709625708e-01 1.725312500000e+02 1.780221272905e+00-7.562457863868e-09
    2.585821995580e-10 1.000000000000e+00 2.144000000000e+03 0.000000000000e+00
    2.400000000000e+00 0.000000000000e+00-1.583248376846e-08 2.200000000000e+01
    4.536000000000e+05 4.000000000000e+00
26 21  2 12  8  0  0.0 4.372373223305e-05 5.570655048359e-12 0.000000000000e+00
    1.500000000000e+01-3.762500000000e+01 4.935205571121e-09 2.399526856622e+00
   -1.948326826096e-06 5.730587989092e-03 8.638948202133e-06 5.153752485275e+03
    4.608000000000e+05-7.450580596924e-08 2.578465783701e+00 2.793967723846e-08
    9.431881007360e-01 2.044687500000e+02 2.713441300007e-01-8.166768750128e-09
   -5.828814222080e-10 1.000000000000e+00 2.144000000000e+03 0.000000000000e+00
    2.400000000000e+00 0.000000000000e+00 6.984919309616e-09 1.500000000000e+01
    4.536000000000e+05 4.000000000000e+00
31 21  2 12  8  0  0.0-9.959749877453e-05-2.273736754432e-12 0.000000000000e+00
    5.300000000000e+01 1.921875000000e+01 5.060567935824e-09-2.715740479115e+00
    9.424984455109e-07 9.975498775020e-03 4.520639777184e-06 5.153728315353e+03
    4.608000000000e+05-1.061707735062e-07 1.597642980151e+00-1.080334186554e-07
    9.558944132278e-01 2.919062500000e+02 2.462851961841e-01-8.263201338361e-09
    1.921508609975e-10 1.000000000000e+00 2.144000000000e+03 0.000000000000e+00
    2.400000000000e+00 0.000000000000e+00-1.303851604462e-08 5.300000000000e+01
    4.536000000000e+05 4.000000000000e+00
17 21  2 12  8  0  0.0 3.927913494408e-04 6.593836587854e-12 0.000000000000e+00
    3.800000000000e+01 1.009375000000e+02 3.778371670060e-09 5.046802965658e-01
    5.206093192101e-06 1.351279008668e-02 1.126341521740e-05 5.153554080963e+03
    4.608000000000e+05-1.639127731323e-07-2.557538778613e+00-7.450580596924e-08
    9.830637073150e-01 1.721562500000e+02-1.578061034611e+00-7.923901490874e-09
    1.660783464012e-10 1.000000000000e+00 2.144000000000e+03 0.000000000000e+00
    2.400000000000e+00 0.000000000000e+00-1.117587089539e-08 3.800000000000e+01
    4.536000000000e+05 4.000000000000e+00
16 21  2 12  8  0  0.0-2.789199352264e-04-5.684341886081e-12 0.000000000000e+00
    1.060000000000e+02-2.175000000000e+01 4.139815297067e-09 1.497228294894e+00
   -1.067295670509e-06 1.218228251673e-02 1.015141606331e-05 5.153647302628e+03
    4.608000000000e+05-1.452863216400e-07 2.709525353578e+00 9.872019290924e-08
    9.751343650947e-01 1.954062500000e+02 6.501281148684e-01-7.842469527478e-09
   -6.843142187197e-10 1.000000000000e+00 2.144000000000e+03 0.000000000000e+00
    2.400000000000e+00 0.000000000000e+00-1.024454832077e-08 1.060000000000e+02
    4.536000000000e+05 4.000000000000e+00
10 21  2 12  8  0  0.0-5.974620580673e-05-8.185452315956e-12 0.000000000000e+00
    9.800000000000e+01-1.263125000000e+02 4.376968032573e-09 2.636869481821e+00
   -6.595626473427e-06 6.486362311989e-03 6.677582859993e-06 5.153677328110e+03
    4.608000000000e+05-9.685754776001e-08-5.246382559406e-01-8.009374141693e-08
    9.683788537120e-01 2.565312500000e+02-2.594841308322e+00-8.002833350132e-09
   -3.575148919303e-10 1.000000000000e+00 2.144000000000e+03 0.000000000000e+00
    2.400000000000e+00 0.000000000000e+00 2.328306436539e-09 9.800000000000e+01
    4.536000000000e+05 4.000000000000e+00
14 21  2 12  8  0  0.0 9.624334052205e-05 2.842170943040e-12 0.000000000000e+00
    1.700000000000e+02-3.200000000000e+01 4.563761527558e-09-1.996151824490e+00
   -1.516193151474e-06 3.478629514575e-04 9.350478649139e-06 5.153737073898e+03
    4.608000000000e+05 2.980232238770e-08 2.665252724348e+00-4.284083843231e-08
    9.584807704685e-01 1.973125000000e+02 2.101087450337e+00-7.992475775840e-09
   -5.500229106620e-10 1.000000000000e+00 2.144000000000e+03 0.000000000000e+00
    2.400000000000e+00 0.000000000000e+00-7.916241884232e-09 1.700000000000e+02
    4.536000000000e+05 4.000000000000e+00
